{"type":"FeatureCollection","features":[{"type":"Feature","id":1,"geometry":{"type":"Polygon","coordinates":[[[-77.84474760033324,45.21987779994595,0],[-76.02099199964495,45.21987779994595,0],[-76.02099199964495,46.18530479980965,0],[-77.84474760033324,46.18530479980965,0],[-77.84474760033324,45.21987779994595,0]]]},"properties":{"OBJECTID":1,"product_file_name":"Flood_CAN_ON_CentralOttawa_20260419_112821.shp","version":1.100000023841858,"confidence_level":"Moderate","swath_file_name":"RCM2_SC30MA_20260419_112820_GRD_Sigma_FME_3978_HH.tif","swath_id":"ON_CentralOttawa_RCM2_20260419_112821_FVR","event_type":"Flood","country_code":"CAN","subdivision_code_client":"ON","aoi_type":"watershed-3","aoi_code":"CentralOttawa","target_name":"Ottawa River | Rivière des Outaouais","datetime_utc":1776598101000,"date_utc":1776556800000,"datetime_utc_str":"2026-04-19 11:28:21","sensor_type":"SAR","sensor_name":"RCM-2","product_notes":null,"datetime_publication_utc":"2026-04-20 19:00:25","package_url":"https://data.eodms-sgdot.nrcan-rncan.gc.ca/public/EGS/2026/Flood/CAN/ON/Flood_CAN_ON_CentralOttawa_20260419_112821.zip","is_active":0,"class":0,"Shape_Length":713820.9145999998,"Shape_Area":31242863004.606686}},{"type":"Feature","id":182,"geometry":{"type":"Polygon","coordinates":[[[-77.85225204896165,45.53008234469692,0],[-76.61410794034408,45.53008234469692,0],[-76.61410794034408,46.2166815976079,0],[-77.85225204896165,46.2166815976079,0],[-77.85225204896165,45.53008234469692,0]]]},"properties":{"OBJECTID":182,"product_file_name":"Flood_CAN_ON_CentralOttawa_20190509_231510.shp","version":1,"confidence_level":"Moderate","swath_file_name":"20190509_231445_CanLCC_mos_HH_16U.tif","swath_id":"ON_CentralOttawa_20190509_231510_M","event_type":"Flood","country_code":"CAN","subdivision_code_client":"ON","aoi_type":"watershed-3","aoi_code":"CentralOttawa","target_name":"Ottawa River | Rivière des Outaouais","datetime_utc":1557443710000,"date_utc":1557360000000,"datetime_utc_str":"2019-05-09 23:15:10","sensor_type":"SAR","sensor_name":"RADARSAT-2","product_notes":null,"datetime_publication_utc":"2019-05-10 16:08:43","package_url":"https://data.eodms-sgdot.nrcan-rncan.gc.ca/public/EGS/2019/Flood/CAN/ON/Flood_CAN_ON_CentralOttawa_20190509_231510.zip","is_active":0,"class":0,"Shape_Length":495217.3773999959,"Shape_Area":15130808677.713928}},{"type":"Feature","id":193,"geometry":{"type":"Polygon","coordinates":[[[-80.0407303932654,45.92382432056993,0],[-78.8442834849038,45.92382432056993,0],[-78.8442834849038,46.63342721310236,0],[-80.0407303932654,46.63342721310236,0],[-80.0407303932654,45.92382432056993,0]]]},"properties":{"OBJECTID":193,"product_file_name":"Flood_CAN_ON_French_20190519_232318.shp","version":1,"confidence_level":"Moderate","swath_file_name":"20190519_232318_CanLCC_mos.pix","swath_id":"ON_UpperOttawa_20190519_232409_M","event_type":"Flood","country_code":"CAN","subdivision_code_client":"ON","aoi_type":"watershed-4","aoi_code":"French","target_name":"Ottawa River | Rivière des Outaouais","datetime_utc":1558308198000,"date_utc":1558224000000,"datetime_utc_str":"2019-05-19 23:23:18","sensor_type":"SAR","sensor_name":"RADARSAT-2","product_notes":null,"datetime_publication_utc":"2019-05-21 16:01:32","package_url":"https://data.eodms-sgdot.nrcan-rncan.gc.ca/public/EGS/2019/Flood/CAN/ON/Flood_CAN_ON_French_20190519_232318.zip","is_active":0,"class":0,"Shape_Length":494962.87420001253,"Shape_Area":15222516934.358267}},{"type":"Feature","id":194,"geometry":{"type":"Polygon","coordinates":[[[-79.11742996161979,46.14630158378792,0],[-77.7382439969165,46.14630158378792,0],[-77.7382439969165,46.59650152081791,0],[-79.11742996161979,46.59650152081791,0],[-79.11742996161979,46.14630158378792,0]]]},"properties":{"OBJECTID":194,"product_file_name":"Flood_CAN_ON_CentralOttawa_20190520_113323.shp","version":1,"confidence_level":"Moderate","swath_file_name":"20190520_113323_CanLCC_mos.pix","swath_id":"ON_CentralOttawa_20190520_113414_M","event_type":"Flood","country_code":"CAN","subdivision_code_client":"ON","aoi_type":"watershed-3","aoi_code":"CentralOttawa","target_name":"Ottawa River | Rivière des Outaouais","datetime_utc":1558352003000,"date_utc":1558310400000,"datetime_utc_str":"2019-05-20 11:33:23","sensor_type":"SAR","sensor_name":"RADARSAT-2","product_notes":null,"datetime_publication_utc":"2019-05-21 16:18:50","package_url":"https://data.eodms-sgdot.nrcan-rncan.gc.ca/public/EGS/2019/Flood/CAN/ON/Flood_CAN_ON_CentralOttawa_20190520_113323.zip","is_active":0,"class":0,"Shape_Length":452329.6205999926,"Shape_Area":11151599831.253897}},{"type":"Feature","id":195,"geometry":{"type":"Polygon","coordinates":[[[-76.24456103254879,45.21480701444041,0],[-75.51441824784148,45.21480701444041,0],[-75.51441824784148,45.581287062916765,0],[-76.24456103254879,45.581287062916765,0],[-76.24456103254879,45.21480701444041,0]]]},"properties":{"OBJECTID":195,"product_file_name":"Flood_CAN_ON_CentralOttawa_20190520_225350.shp","version":1,"confidence_level":"Moderate","swath_file_name":"20190520_225355_CanLCC_mos.pix","swath_id":"ON_LowerOttawa_20190520_225441_M","event_type":"Flood","country_code":"CAN","subdivision_code_client":"ON","aoi_type":"watershed-3","aoi_code":"CentralOttawa","target_name":"Ottawa River | Rivière des Outaouais","datetime_utc":1558392830000,"date_utc":1558310400000,"datetime_utc_str":"2019-05-20 22:53:50","sensor_type":"SAR","sensor_name":"RADARSAT-2","product_notes":null,"datetime_publication_utc":"2019-05-21 17:03:53","package_url":"https://data.eodms-sgdot.nrcan-rncan.gc.ca/public/EGS/2019/Flood/CAN/ON/Flood_CAN_ON_CentralOttawa_20190520_225350.zip","is_active":0,"class":0,"Shape_Length":278758.48099999875,"Shape_Area":4722326596.5969095}},{"type":"Feature","id":196,"geometry":{"type":"Polygon","coordinates":[[[-78.1265421439164,45.74875084414016,0],[-77.01181693527846,45.74875084414016,0],[-77.01181693527846,46.40605822728079,0],[-78.1265421439164,46.40605822728079,0],[-78.1265421439164,45.74875084414016,0]]]},"properties":{"OBJECTID":196,"product_file_name":"Flood_CAN_ON_CentralOttawa_20190521_110414.shp","version":1,"confidence_level":"Moderate","swath_file_name":"20190521_110414_CanLCC_mos.pix","swath_id":"ON_CentralOttawa_20190521_110506_M","event_type":"Flood","country_code":"CAN","subdivision_code_client":"ON","aoi_type":"watershed-3","aoi_code":"CentralOttawa","target_name":"Ottawa River | Rivière des Outaouais","datetime_utc":1558436654000,"date_utc":1558396800000,"datetime_utc_str":"2019-05-21 11:04:14","sensor_type":"SAR","sensor_name":"RADARSAT-2","product_notes":null,"datetime_publication_utc":"2019-05-21 15:56:24","package_url":"https://data.eodms-sgdot.nrcan-rncan.gc.ca/public/EGS/2019/Flood/CAN/ON/Flood_CAN_ON_CentralOttawa_20190521_110414.zip","is_active":0,"class":0,"Shape_Length":459148.1969999969,"Shape_Area":13089509826.29957}},{"type":"Feature","id":197,"geometry":{"type":"Polygon","coordinates":[[[-80.25331068833651,46.17847183575513,0],[-79.80498984852348,46.17847183575513,0],[-79.80498984852348,46.39680985130513,0],[-80.25331068833651,46.39680985130513,0],[-80.25331068833651,46.17847183575513,0]]]},"properties":{"OBJECTID":197,"product_file_name":"Flood_CAN_ON_French_20190522_231108.shp","version":1.2999999523162842,"confidence_level":"Moderate","swath_file_name":"TSX_20190522_231108_HH.tif","swath_id":"ON_Nipissing TSX_20190522_231108","event_type":"Flood","country_code":"CAN","subdivision_code_client":"ON","aoi_type":"watershed-4","aoi_code":"French","target_name":"French River | Rivière des Français","datetime_utc":1558566668000,"date_utc":1558483200000,"datetime_utc_str":"2019-05-22 23:11:08","sensor_type":"SAR","sensor_name":"TerraSAR-X","product_notes":null,"datetime_publication_utc":"2019-05-23 14:47:06","package_url":"https://data.eodms-sgdot.nrcan-rncan.gc.ca/public/EGS/2019/Flood/CAN/ON/Flood_CAN_ON_French_20190522_231108.zip","is_active":0,"class":0,"Shape_Length":170158.05100000277,"Shape_Area":1755332522.2154574}}]}